COMMENT,ORIGINATOR,NORAD_CAT_ID,OBJECT_NAME,OBJECT_TYPE,CLASSIFICATION_TYPE,INTLDES,EPOCH,EPOCH_MICROSECONDS,MEAN_MOTION,ECCENTRICITY,INCLINATION,RA_OF_ASC_NODE,ARG_OF_PERICENTER,MEAN_ANOMALY,EPHEMERIS_TYPE,ELEMENT_SET_NO,REV_AT_EPOCH,BSTAR,MEAN_MOTION_DOT,MEAN_MOTION_DDOT,FILE,TLE_LINE0,TLE_LINE1,TLE_LINE2,OBJECT_ID,OBJECT_NUMBER,SEMIMAJOR_AXIS,PERIOD,APOGEE,PERIGEE,DECAYED
"GENERATED VIA SPACETRACK.ORG API","18 SPCS","47950","OBJECT U","TBA","U","21022U","2021-08-04 12:21:38","177280","15.05754726","0.0022425","97.552","117.6625","144.9553","339.5508","0","999","2028","0.000016936","0.00000185","0","3089435","0 OBJECT U","1 47950U 21022U   21216.51502520  .00000185  00000-0  16936-4 0  9997","2 47950  97.5520 117.6625 0022425 144.9553 339.5508 15.05754726 20286","2021-022U","47950","6927.327","95.633","564.726","533.657","0"
"GENERATED VIA SPACETRACK.ORG API","18 SPCS","47950","OBJECT U","TBA","U","21022U","2021-08-04 12:21:38","177280","15.05754726","0.0022425","97.552","117.6625","144.9553","339.5508","0","999","2028","0.000016936","0.00000185","0","3089467","0 OBJECT U","1 47950U 21022U   21216.51502520  .00000185  00000-0  16936-4 0  9997","2 47950  97.5520 117.6625 0022425 144.9553 339.5508 15.05754726 20286","2021-022U","47950","6927.327","95.633","564.726","533.657","0"
"GENERATED VIA SPACETRACK.ORG API","18 SPCS","47950","OBJECT U","TBA","U","21022U","2021-08-04 20:05:25","855584","15.05754948","0.00224","97.5517","117.9778","143.917","285.3949","0","999","2033","0.000016754","0.00000182","0","3089691","0 OBJECT U","1 47950U 21022U   21216.83710481  .00000182  00000-0  16754-4 0  9994","2 47950  97.5517 117.9778 0022400 143.9170 285.3949 15.05754948 20330","2021-022U","47950","6927.326","95.633","564.708","533.674","0"
"GENERATED VIA SPACETRACK.ORG API","18 SPCS","47950","OBJECT U","TBA","U","21022U","2021-08-04 20:05:25","855584","15.05754948","0.00224","97.5517","117.9778","143.917","285.3949","0","999","2033","0.000016754","0.00000182","0","3089704","0 OBJECT U","1 47950U 21022U   21216.83710481  .00000182  00000-0  16754-4 0  9994","2 47950  97.5517 117.9778 0022400 143.9170 285.3949 15.05754948 20330","2021-022U","47950","6927.326","95.633","564.708","533.674","0"
"GENERATED VIA SPACETRACK.ORG API","18 SPCS","47950","OBJECT U","TBA","U","21022U","2021-08-05 04:24:39","665088","15.0575501","0.0022454","97.5516","118.3171","142.7706","4.6558","0","999","2038","0.000015462","0.00000163","0","3089871","0 OBJECT U","1 47950U 21022U   21217.18379242  .00000163  00000-0  15462-4 0  9993","2 47950  97.5516 118.3171 0022454 142.7706   4.6558 15.05755010 20386","2021-022U","47950","6927.326","95.633","564.746","533.636","0"
"GENERATED VIA SPACETRACK.ORG API","18 SPCS","47950","OBJECT U","TBA","U","21022U","2021-08-05 12:11:46","15872","15.05754763","0.002249","97.5518","118.6348","141.698","322.9885","0","999","2043","0.000012108","0.00000114","0","3090141","0 OBJECT U","1 47950U 21022U   21217.50817148  .00000114  00000-0  12108-4 0  9991","2 47950  97.5518 118.6348 0022490 141.6980 322.9885 15.05754763 20438","2021-022U","47950","6927.327","95.633","564.771","533.612","0"
"GENERATED VIA SPACETRACK.ORG API","18 SPCS","47950","OBJECT U","TBA","U","21022U","2021-08-05 12:11:46","15872","15.05754763","0.002249","97.5518","118.6348","141.698","322.9885","0","999","2043","0.000012108","0.00000114","0","3090160","0 OBJECT U","1 47950U 21022U   21217.50817148  .00000114  00000-0  12108-4 0  9991","2 47950  97.5518 118.6348 0022490 141.6980 322.9885 15.05754763 20438","2021-022U","47950","6927.327","95.633","564.771","533.612","0"
"GENERATED VIA SPACETRACK.ORG API","18 SPCS","47950","OBJECT U","TBA","U","21022U","2021-08-05 20:05:56","16096","15.05754916","0.0022445","97.5518","118.9571","140.6088","307.9025","0","999","2048","0.000012198","0.00000116","0","3090321","0 OBJECT U","1 47950U 21022U   21217.83745389  .00000116  00000-0  12198-4 0  9995","2 47950  97.5518 118.9571 0022445 140.6088 307.9025 15.05754916 20481","2021-022U","47950","6927.326","95.633","564.740","533.643","0"
"GENERATED VIA SPACETRACK.ORG API","18 SPCS","47950","OBJECT U","TBA","U","21022U","2021-08-05 20:05:56","16096","15.05754916","0.0022445","97.5518","118.9571","140.6088","307.9025","0","999","2048","0.000012198","0.00000116","0","3090344","0 OBJECT U","1 47950U 21022U   21217.83745389  .00000116  00000-0  12198-4 0  9995","2 47950  97.5518 118.9571 0022445 140.6088 307.9025 15.05754916 20481","2021-022U","47950","6927.326","95.633","564.740","533.643","0"
"GENERATED VIA SPACETRACK.ORG API","18 SPCS","47950","OBJECT U","TBA","U","21022U","2021-08-06 04:23:43","307232","15.0575529","0.0022523","97.5517","119.2954","139.5532","21.6503","0","999","2053","0.000013922","0.00000141","0","3090535","0 OBJECT U","1 47950U 21022U   21218.18314013  .00000141  00000-0  13922-4 0  9994","2 47950  97.5517 119.2954 0022523 139.5532  21.6503 15.05755290 20530","2021-022U","47950","6927.325","95.633","564.793","533.588","0"
"GENERATED VIA SPACETRACK.ORG API","18 SPCS","47950","OBJECT U","TBA","U","21022U","2021-08-06 12:25:50","17728","15.05755603","0.0022541","97.5516","119.623","138.4655","36.4551","0","999","2058","0.000014888","0.00000155","0","3090577","0 OBJECT U","1 47950U 21022U   21218.51794002  .00000155  00000-0  14888-4 0  9998","2 47950  97.5516 119.6230 0022541 138.4655  36.4551 15.05755603 20584","2021-022U","47950","6927.324","95.633","564.804","533.574","0"
"GENERATED VIA SPACETRACK.ORG API","18 SPCS","47950","OBJECT U","TBA","U","21022U","2021-08-06 20:01:32","317248","15.05756402","0.002249","97.5514","119.9329","137.6459","311.6525","0","999","2063","0.000019296","0.00000219","0","3090904","0 OBJECT U","1 47950U 21022U   21218.83440182  .00000219  00000-0  19296-4 0  9999","2 47950  97.5514 119.9329 0022490 137.6459 311.6525 15.05756402 20633","2021-022U","47950","6927.322","95.633","564.766","533.607","0"
"GENERATED VIA SPACETRACK.ORG API","18 SPCS","47950","OBJECT U","TBA","U","21022U","2021-08-06 20:01:32","317248","15.05756402","0.002249","97.5514","119.9329","137.6459","311.6525","0","999","2063","0.000019296","0.00000219","0","3090924","0 OBJECT U","1 47950U 21022U   21218.83440182  .00000219  00000-0  19296-4 0  9999","2 47950  97.5514 119.9329 0022490 137.6459 311.6525 15.05756402 20633","2021-022U","47950","6927.322","95.633","564.766","533.607","0"
"GENERATED VIA SPACETRACK.ORG API","18 SPCS","47950","OBJECT U","TBA","U","21022U","2021-08-07 04:17:49","909632","15.0575692","0.0022541","97.5514","120.2704","136.5419","19.8268","0","999","2068","0.000021535","0.00000252","0","3091195","0 OBJECT U","1 47950U 21022U   21219.17904988  .00000252  00000-0  21535-4 0  9992","2 47950  97.5514 120.2704 0022541 136.5419  19.8268 15.05756920 20687","2021-022U","47950","6927.320","95.633","564.800","533.570","0"
"GENERATED VIA SPACETRACK.ORG API","18 SPCS","47950","OBJECT U","TBA","U","21022U","2021-08-07 13:41:56","155776","15.05757637","0.0022503","97.5514","120.654","135.1575","343.3883","0","999","2074","0.000025077","0.00000303","0","3091387","0 OBJECT U","1 47950U 21022U   21219.57078884  .00000303  00000-0  25077-4 0  9995","2 47950  97.5514 120.6540 0022503 135.1575 343.3883 15.05757637 20746","2021-022U","47950","6927.318","95.633","564.772","533.594","0"
"GENERATED VIA SPACETRACK.ORG API","18 SPCS","47950","OBJECT U","TBA","U","21022U","2021-08-07 13:41:56","155776","15.05757637","0.0022503","97.5514","120.654","135.1575","343.3883","0","999","2074","0.000025077","0.00000303","0","3091404","0 OBJECT U","1 47950U 21022U   21219.57078884  .00000303  00000-0  25077-4 0  9995","2 47950  97.5514 120.6540 0022503 135.1575 343.3883 15.05757637 20746","2021-022U","47950","6927.318","95.633","564.772","533.594","0"
"GENERATED VIA SPACETRACK.ORG API","18 SPCS","47950","OBJECT U","TBA","U","21022U","2021-08-07 21:25:50","595744","15.05758508","0.0022498","97.5513","120.9695","134.2549","289.5276","0","999","2079","0.000030094","0.00000376","0","3091656","0 OBJECT U","1 47950U 21022U   21219.89294671  .00000376  00000-0  30094-4 0  9999","2 47950  97.5513 120.9695 0022498 134.2549 289.5276 15.05758508 20793","2021-022U","47950","6927.315","95.633","564.765","533.595","0"
"GENERATED VIA SPACETRACK.ORG API","18 SPCS","47950","OBJECT U","TBA","U","21022U","2021-08-07 21:25:50","595744","15.05758508","0.0022498","97.5513","120.9695","134.2549","289.5276","0","999","2079","0.000030094","0.00000376","0","3091669","0 OBJECT U","1 47950U 21022U   21219.89294671  .00000376  00000-0  30094-4 0  9999","2 47950  97.5513 120.9695 0022498 134.2549 289.5276 15.05758508 20793","2021-022U","47950","6927.315","95.633","564.765","533.595","0"
"GENERATED VIA SPACETRACK.ORG API","18 SPCS","47950","OBJECT U","TBA","U","21022U","2021-08-08 05:38:29","647968","15.05759555","0.0022577","97.5513","121.3042","133.2327","343.9233","0","999","2084","0.000035603","0.00000456","0","3091946","0 OBJECT U","1 47950U 21022U   21220.23506537  .00000456  00000-0  35603-4 0  9996","2 47950  97.5513 121.3042 0022577 133.2327 343.9233 15.05759555 20842","2021-022U","47950","6927.312","95.633","564.817","533.537","0"
"GENERATED VIA SPACETRACK.ORG API","18 SPCS","47950","OBJECT U","TBA","U","21022U","2021-08-08 13:37:52","330656","15.05760341","0.0022558","97.5515","121.6304","132.0106","348.5837","0","999","2089","0.000039276","0.0000051","0","3092127","0 OBJECT U","1 47950U 21022U   21220.56796679  .00000510  00000-0  39276-4 0  9991","2 47950  97.5515 121.6304 0022558 132.0106 348.5837 15.05760341 20890","2021-022U","47950","6927.310","95.633","564.801","533.548","0"
